0 FENGYUN 1C DEB
1 31478U 99025BVS 13281.09237508  .00005229  00000-0  23532-2 0  7642
2 31478 102.5911 229.3783 0033719 309.9106 116.5737 14.22709534333140
0 FENGYUN 1C DEB
1 31478U 99025BVS 13282.07605388  .00008329  00000-0  37248-2 0  7650
2 31478 102.5899 230.7796 0033512 307.4573 114.7566 14.22725906333283
0 FENGYUN 1C DEB
1 31478U 99025BVS 13289.10905218  .00009186  00000-0  40979-2 0  7675
2 31478 102.5906 240.7944 0032536 290.3270 137.2119 14.22820236334284
0 FENGYUN 1C DEB
1 31478U 99025BVS 13292.36013297  .00007847  00000-0  35033-2 0  7682
2 31478 102.5924 245.4226 0032405 282.1669 230.1070 14.22869919334746
0 FENGYUN 1C DEB
1 31478U 99025BVS 13294.10099891  .00008870  00000-0  39533-2 0  7697
2 31478 102.5916 247.9022 0031947 277.8079 147.5108 14.22894701334991
